OBJECT_NAME,OBJECT_ID,EPOCH,MEAN_MOTION,ECCENTRICITY,INCLINATION,RA_OF_ASC_NODE,ARG_OF_PERICENTER,MEAN_ANOMALY,EPHEMERIS_TYPE,CLASSIFICATION_TYPE,NORAD_CAT_ID,ELEMENT_SET_NO,REV_AT_EPOCH,BSTAR,MEAN_MOTION_DOT,MEAN_MOTION_DDOT
LAOSAT 1,2015-067A,2026-06-04T21:01:00.884352,1.00268745,.0002276,0.0378,219.8072,180.6385,296.6475,0,U,41034,999,3873,0,-.331E-5,0
TELSTAR 12V,2015-068A,2026-06-05T03:10:42.682080,1.00271849,.0002545,0.0169,3.6406,67.2725,215.3476,0,U,41036,999,3850,0,-.107E-5,0
ELEKTRO-L 2,2015-074A,2026-06-05T01:28:11.684640,1.00272317,.0001332,6.6638,70.6705,281.5102,268.8844,0,U,41105,999,3838,0,-.106E-5,0
COSMOS 2513,2015-075A,2026-06-05T03:37:55.073568,1.00270169,.0003903,0.0787,101.7360,327.5825,319.0071,0,U,41121,999,3842,0,-.126E-5,0
EXPRESS-AMU1,2015-082A,2026-06-05T03:37:38.548704,1.00273451,.0003126,0.0160,311.9465,127.5537,264.6204,0,U,41191,999,3814,0,.168E-5,0
GAOFEN-4,2015-083A,2026-06-05T00:19:49.824768,1.00270105,.0004305,0.3261,83.7940,109.1638,171.1502,0,U,41194,999,3840,0,-.322E-5,0
BELINTERSAT-1,2016-001A,2026-06-05T03:29:40.862112,1.00272122,.0002177,0.0429,141.0512,250.8057,325.6440,0,U,41238,999,3811,0,.119E-5,0
IRNSS-1E,2016-003A,2026-06-04T15:48:10.134432,1.00270961,.00178641,33.2080,59.9318,179.9261,2.0458,0,U,41241,999,3795,0,-.298E-5,0
EUTELSAT 9B,2016-005A,2026-06-05T03:17:34.524096,1.00271869,.0002105,0.0516,67.9794,336.7029,267.2677,0,U,41310,999,3799,0,.74E-6,0
SES-9,2016-013A,2026-06-04T15:45:30.957120,1.00271621,.00024739,0.0099,344.6308,96.2703,156.8847,0,U,41380,999,3731,0,-.333E-5,0
EUTELSAT 65 WEST A,2016-014A,2026-06-05T03:48:38.407968,1.00274380,.0002507,0.0481,357.8496,66.7593,180.9393,0,U,41382,999,3740,0,-.264E-5,0
IRNSS-1F,2016-015A,2026-06-05T01:41:38.353056,1.00276754,.0016695,5.3189,97.0549,186.9438,27.4261,0,U,41384,999,3754,0,.17E-5,0
BEIDOU-2 IGSO-6,2016-021A,2026-06-04T15:42:25.684416,1.00262242,.00572736,60.2080,38.1652,231.5153,312.6127,0,U,41434,999,3735,0,-.144E-5,0
IRNSS-1G,2016-027A,2026-06-04T19:18:36.925056,1.00272477,.0007428,5.1678,97.7591,351.7415,222.9854,0,U,41469,999,3705,0,-.322E-5,0
JCSAT-2B,2016-028A,2026-06-04T22:40:38.559072,1.00270641,.0001196,0.0180,338.7590,100.0957,308.6950,0,U,41471,999,3700,0,-.153E-5,0
THAICOM 8,2016-031A,2026-06-05T03:37:25.121280,1.00271259,.0003964,0.0600,39.3987,16.6428,330.4505,0,U,41552,999,3659,0,-.109E-5,0
INTELSAT 31 (IS-31),2016-035A,2026-06-05T04:26:45.213792,1.00272351,.0000845,0.0141,264.6705,321.7238,358.8749,0,U,41581,999,3656,0,-.139E-5,0
BEIDOU-2 G7,2016-037A,2026-06-05T00:21:12.193344,1.00271353,.0007355,1.6899,69.2154,0.6526,299.4520,0,U,41586,999,676,0,-.341E-5,0
ABS-2A (MONGOLSAT-1),2016-038A,2026-06-05T03:36:25.215840,1.00268305,.0001541,0.0202,330.9075,56.3440,355.1913,0,U,41588,999,3658,0,0,0
EUTELSAT 117 WEST B,2016-038B,2026-06-04T23:16:16.819968,1.00267843,.0000351,0.0098,143.2985,200.9234,141.2528,0,U,41589,999,3654,0,.1E-7,0
BRISAT,2016-039A,2026-06-04T14:54:38.650752,1.00271243,.00022716,0.0170,307.0473,126.1649,194.0173,0,U,41591,999,3648,0,-.184E-5,0
ECHOSTAR 18,2016-039B,2026-06-04T16:39:32.642784,1.00270746,.00016847,0.0177,350.3252,87.6057,3.7344,0,U,41592,999,3649,0,-.27E-5,0
MUOS-5,2016-041A,2026-06-05T01:02:00.777984,1.00270511,.0196568,2.2303,301.4167,260.8856,321.4554,0,U,41622,999,3696,0,-.112E-5,0
TIANTONG-1 1,2016-048A,2026-06-05T04:26:45.854016,1.00273068,.000623,3.8259,43.3121,40.2615,338.1659,0,U,41725,999,3615,0,-.306E-5,0
JCSAT-16,2016-050A,2026-06-05T03:56:08.324736,1.00270764,.0001256,0.0176,335.8434,110.7463,9.9889,0,U,41729,999,3595,0,-.239E-5,0
USA 270,2016-052A,2026-06-02T09:40:52.627296,1.00282212,.0008496,4.1610,77.3749,336.5224,166.3382,0,U,41744,999,2798,0,.89E-6,0
USA 271,2016-052B,2026-06-01T19:24:54.468864,1.00265484,.0010805,4.1306,77.4501,158.0330,68.9246,0,U,41745,999,2776,0,-.348E-5,0
INTELSAT 36 (IS-36),2016-053A,2026-06-04T19:57:21.472992,1.00270778,.0001599,0.0136,12.5282,330.5945,277.9825,0,U,41747,999,3583,0,-.12E-6,0
INSAT-3DR,2016-054A,2026-06-05T01:53:29.716224,1.00270740,.0010286,0.0756,88.1143,187.0212,80.7580,0,U,41752,999,3569,0,-.65E-6,0
GSAT-18,2016-060A,2026-06-05T01:53:29.716224,1.00271638,.0005922,0.0316,102.8020,326.6255,286.4597,0,U,41793,999,3540,0,-.65E-6,0
SKY MUSTER 2 (NBN1B),2016-060B,2026-06-04T15:57:40.605120,1.00270210,.00017791,0.0162,314.4967,120.4465,202.3864,0,U,41794,999,3539,0,-.232E-5,0
HIMAWARI-9,2016-064A,2026-06-04T14:57:50.861376,1.00270307,.00015402,0.0411,168.7325,312.7214,136.8363,0,U,41836,999,3508,0,-.263E-5,0
SHIJIAN-17 (SJ-17),2016-065A,2026-06-04T14:40:31.649088,0.99853989,.0002103,5.7206,72.7552,19.4633,275.6729,0,U,41838,999,3507,0,-.18E-6,0
GOES 16,2016-071A,2026-06-05T02:45:09.761184,1.00271137,.0000632,0.3093,85.6480,318.4391,146.0983,0,U,41866,999,3498,0,-.79E-6,0
TIANLIAN 1-04,2016-072A,2026-06-04T02:25:19.208064,1.00275065,.00420902,0.8355,83.0574,90.3135,292.3706,0,U,41869,999,3517,0,.44E-6,0
WGS F8 (USA 272),2016-075A,2026-06-04T14:30:02.587968,1.00269488,.0000195,0.0044,358.9945,314.2495,307.1389,0,U,41879,999,3469,0,-.191E-5,0
FENGYUN 4A,2016-077A,2026-06-04T22:42:20.074752,1.00276196,.0008161,2.2918,80.4171,151.7274,125.5576,0,U,41882,999,3480,0,-.345E-5,0
ECHOSTAR 19,2016-079A,2026-06-04T14:48:32.305248,1.00272529,.00015923,0.0176,3.1037,79.8804,295.1243,0,U,41893,999,3457,0,-.127E-5,0
JCSAT-110A (JCSAT-15),2016-082A,2026-06-04T17:05:15.572256,1.00270295,.00008086,0.0023,2.5416,86.3549,170.6416,0,U,41903,999,3463,0,-.339E-5,0
STAR ONE D1,2016-082B,2026-06-05T03:56:38.853312,1.00270039,.0002082,0.0108,30.0684,57.4360,141.2514,0,U,41904,999,3465,0,-.198E-5,0
TJS-2,2017-001A,2026-06-05T03:34:02.944416,1.00272501,.0000784,0.8018,85.4949,11.5439,276.5937,0,U,41911,999,3459,0,.6E-7,0
SBIRS GEO-4 (USA 273),2017-004A,2026-06-05T03:20:56.700096,1.00272363,.0002395,2.2196,42.9452,28.0012,253.7716,0,U,41937,999,3447,0,.135E-5,0
HISPASAT 36W-1,2017-006A,2026-06-04T21:56:48.034176,1.00270604,.0000926,0.0128,147.9686,293.7802,104.8111,0,U,41942,999,3412,0,-.232E-5,0
TELKOM 3S,2017-007A,2026-06-04T22:40:42.732192,1.00271179,.0002513,0.0136,279.8281,157.3861,274.3631,0,U,41944,999,3401,0,-.35E-5,0
INTELSAT 32E (IS-32E),2017-007B,2026-06-04T11:38:44.577024,1.00272952,.00004549,0.0180,347.8046,15.9771,20.6539,0,U,41945,999,3409,0,-.257E-5,0
ECHOSTAR 23,2017-014A,2026-06-04T21:35:20.091840,1.00271139,.000186,0.0176,5.8946,69.5571,31.8276,0,U,42070,999,3380,0,-.45E-6,0
WGS F9 (USA 275),2017-016A,2026-06-04T15:12:58.336128,1.00272187,.00004759,0.0111,299.2373,136.8333,33.2598,0,U,42075,999,3377,0,-.84E-6,0
SES-10,2017-017A,2026-06-04T13:14:40.375680,1.00272706,.0003032,0.0241,36.0934,45.6340,303.0423,0,U,42432,999,3362,0,-.261E-5,0
CHINASAT 16 (SJ-13),2017-018A,2026-06-04T12:22:32.876256,1.00268678,.00032087,0.1012,93.0486,135.6641,320.3913,0,U,42662,999,3362,0,-.34E-5,0
KOREASAT 7,2017-023A,2026-06-05T04:21:38.862720,1.00273627,.0000564,0.0227,331.2718,66.5138,37.1208,0,U,42691,999,3325,0,-.35E-5,0
SGDC,2017-023B,2026-06-04T12:07:44.026752,1.00270594,.0003109,0.0151,38.0106,46.7179,275.3120,0,U,42692,999,3328,0,-.238E-5,0
GSAT-9,2017-024A,2026-06-05T03:57:21.756096,1.00274106,.0002512,0.0183,284.7238,144.5885,340.9542,0,U,42695,999,3317,0,-.275E-5,0
INMARSAT 5-F4,2017-025A,2026-06-04T12:07:11.847936,1.00270324,.00002164,0.0175,342.7023,92.8394,55.7052,0,U,42698,999,3315,0,.87E-6,0
SES-15,2017-026A,2026-06-04T14:54:01.203264,1.00270523,.00011187,0.0208,330.5745,62.2958,314.5488,0,U,42709,999,730,0,.72E-6,0
QZS-2 (MICHIBIKI-2),2017-028A,2026-06-04T12:56:27.116736,1.00287296,.0760663,39.4467,243.3410,269.1234,75.7690,0,U,42738,999,749,0,-.155E-5,0
VIASAT-2,2017-029A,2026-06-04T16:40:52.732992,1.00271233,.00003533,0.0176,292.1747,145.4212,355.8787,0,U,42740,999,3307,0,-.253E-5,0
EUTELSAT 172B,2017-029B,2026-06-05T02:21:19.548288,1.00270330,.000011,0.0098,85.2688,13.6912,1.9151,0,U,42741,999,3362,0,.6E-7,0
GSAT-19,2017-031A,2026-06-05T03:28:40.959264,1.00270391,.0007097,0.1023,91.4068,347.6604,274.5553,0,U,42747,999,3302,0,.138E-5,0
ECHOSTAR 21,2017-032A,2026-06-05T04:29:38.585760,1.00270391,.0002465,1.7721,354.8983,81.8418,254.5740,0,U,42749,999,3297,0,.77E-6,0
BULGARIASAT-1,2017-038A,2026-06-04T23:50:12.417792,1.00269122,.0003641,0.0632,89.1509,357.9877,165.7425,0,U,42801,999,3272,0,.23E-6,0
HELLAS-SAT 3,2017-040A,2026-06-05T03:26:11.196960,1.00272381,.0004901,0.0500,47.9833,1.4210,294.7156,0,U,42814,999,3268,0,.165E-5,0
GSAT-17,2017-040B,2026-06-05T02:52:21.775008,1.00271196,.0001644,0.0962,88.8392,216.8241,84.4959,0,U,42815,999,3266,0,-.246E-5,0
INTELSAT 35E (IS-35E),2017-041A,2026-06-05T04:43:54.909120,1.00273862,.0001976,0.0154,13.7640,59.6322,216.7268,0,U,42818,999,3269,0,-.225E-5,0
COSMOS 2520,2017-046A,2026-06-04T18:54:38.041056,1.00267672,.0001339,0.0459,86.4379,42.0777,93.4136,0,U,42907,999,3227,0,.149E-5,0
TDRS 13,2017-047A,2026-06-05T03:11:50.074080,1.00272480,.0014686,3.4485,2.4244,104.2747,183.3882,0,U,42915,999,3222,0,-.88E-6,0
QZS-3 (MICHIBIKI-3),2017-048A,2026-06-05T00:25:56.737056,1.00271907,.000286,0.0599,193.2900,250.0588,303.6328,0,U,42917,999,3213,0,-.336E-5,0
AMAZONAS 5,2017-053A,2026-06-04T16:40:04.589184,1.00274619,.00028235,0.0331,321.4966,68.7114,51.9642,0,U,42934,999,3192,0,-.271E-5,0
ASIASAT 9,2017-057A,2026-06-04T10:43:15.135744,1.00271614,.00023259,0.0040,352.4544,75.0267,108.3279,0,U,42942,999,3173,0,-.348E-5,0
INTELSAT 37E (IS-37E),2017-059A,2026-06-05T03:09:57.754080,1.00271990,.0002613,0.0157,10.5088,79.7007,192.8647,0,U,42950,999,3194,0,-.128E-5,0
BSAT-4A,2017-059B,2026-06-04T17:23:58.943328,1.00270483,.0004492,0.0344,351.3581,75.4748,197.1694,0,U,42951,999,3167,0,-.338E-5,0
QZS-4 (MICHIBIKI-4),2017-062A,2026-06-04T08:56:23.188704,1.00255482,.074483,40.1160,343.6465,271.5298,269.7386,0,U,42965,999,3167,0,-.321E-5,0
SES-11 (ECHOSTAR 105),2017-063A,2026-06-05T02:45:09.761184,1.00271386,.0002864,0.0177,326.5079,117.9657,105.4256,0,U,42967,999,3160,0,-.77E-6,0
